{
  "type": "FeatureCollection",
  "features": [
    {
      "type": "Feature",
      "properties": {
        "norad_id": 31491,
        "name": "FENGYUN 1C DEB",
        "group": "fengyun-1c-debris",
        "lat": -7.027640733555514,
        "lon": -103.5360817708474,
        "alt_km": 834.3795139259946,
        "timestamp": "2025-12-12T16:50:33.427490+00:00",
        "meta_object_name": "FENGYUN 1C DEB",
        "meta_object_id": "1999-025BWE",
        "meta_epoch": "2025-12-12T05:00:56.574432",
        "meta_mean_motion": 14.17257066,
        "meta_eccentricity": 0.0052084,
        "meta_inclination": 99.3042,
        "meta_ra_of_asc_node": 254.7905,
        "meta_arg_of_pericenter": 270.2061,
        "meta_mean_anomaly": 89.3144,
        "meta_ephemeris_type": 0,
        "meta_classification_type": "U",
        "meta_norad_cat_id": 31491,
        "meta_element_set_no": 999,
        "meta_rev_at_epoch": 63720,
        "meta_bstar": 0.0028868916,
        "meta_mean_motion_dot": 5.863e-05,
        "meta_mean_motion_ddot": 0,
        "tle_line1": "1 31491U 99025BWE 25346.20898813  .00005863  00000+0  28869-2 0  9998",
        "tle_line2": "2 31491  99.3042 254.7905 0052084 270.2061  89.3144 14.17257066637202"
      },
      "geometry": {
        "type": "Point",
        "coordinates": [
          -103.5360817708474,
          -7.027640733555514
        ]
      }
    },
    {
      "type": "Feature",
      "properties": {
        "norad_id": 31492,
        "name": "FENGYUN 1C DEB",
        "group": "fengyun-1c-debris",
        "lat": -55.68450680291477,
        "lon": -40.489726620187525,
        "alt_km": 696.0666341125652,
        "timestamp": "2025-12-12T16:50:33.427501+00:00",
        "meta_object_name": "FENGYUN 1C DEB",
        "meta_object_id": "1999-025BWF",
        "meta_epoch": "2025-12-11T21:48:26.127936",
        "meta_mean_motion": 14.70712835,
        "meta_eccentricity": 0.006446,
        "meta_inclination": 98.857,
        "meta_ra_of_asc_node": 151.855,
        "meta_arg_of_pericenter": 11.4418,
        "meta_mean_anomaly": 348.8234,
        "meta_ephemeris_type": 0,
        "meta_classification_type": "U",
        "meta_norad_cat_id": 31492,
        "meta_element_set_no": 999,
        "meta_rev_at_epoch": 96494,
        "meta_bstar": 0.0041918,
        "meta_mean_motion_dot": 0.00026419,
        "meta_mean_motion_ddot": 0,
        "tle_line1": "1 31492U 99025BWF 25345.90863574  .00026419  00000+0  41918-2 0  9991",
        "tle_line2": "2 31492  98.8570 151.8550 0064460  11.4418 348.8234 14.70712835964944"
      },
      "geometry": {
        "type": "Point",
        "coordinates": [
          -40.489726620187525,
          -55.68450680291477
        ]
      }
    },
    {
      "type": "Feature",
      "properties": {
        "norad_id": 31493,
        "name": "FENGYUN 1C DEB",
        "group": "fengyun-1c-debris",
        "lat": -21.95087915799032,
        "lon": 108.45768761209766,
        "alt_km": 846.8355242120624,
        "timestamp": "2025-12-12T16:50:33.427511+00:00",
        "meta_object_name": "FENGYUN 1C DEB",
        "meta_object_id": "1999-025BWG",
        "meta_epoch": "2025-12-12T02:05:14.361792",
        "meta_mean_motion": 13.92967952,
        "meta_eccentricity": 0.01169776,
        "meta_inclination": 100.136,
        "meta_ra_of_asc_node": 291.9196,
        "meta_arg_of_pericenter": 177.3499,
        "meta_mean_anomaly": 182.8302,
        "meta_ephemeris_type": 0,
        "meta_classification_type": "U",
        "meta_norad_cat_id": 31493,
        "meta_element_set_no": 999,
        "meta_rev_at_epoch": 59857,
        "meta_bstar": 0.0010865995,
        "meta_mean_motion_dot": 1.441e-05,
        "meta_mean_motion_ddot": 0,
        "tle_line1": "1 31493U 99025BWG 25346.08697178  .00001441  00000+0  10866-2 0  9993",
        "tle_line2": "2 31493 100.1360 291.9196 0116977 177.3499 182.8302 13.92967952598572"
      },
      "geometry": {
        "type": "Point",
        "coordinates": [
          108.45768761209766,
          -21.95087915799032
        ]
      }
    },
    {
      "type": "Feature",
      "properties": {
        "norad_id": 31495,
        "name": "FENGYUN 1C DEB",
        "group": "fengyun-1c-debris",
        "lat": 24.159823926498678,
        "lon": -144.25652670605092,
        "alt_km": 810.0314713308417,
        "timestamp": "2025-12-12T16:50:33.427522+00:00",
        "meta_object_name": "FENGYUN 1C DEB",
        "meta_object_id": "1999-025BWJ",
        "meta_epoch": "2025-12-10T09:16:50.784096",
        "meta_mean_motion": 14.29184839,
        "meta_eccentricity": 0.00253466,
        "meta_inclination": 99.1197,
        "meta_ra_of_asc_node": 217.4548,
        "meta_arg_of_pericenter": 185.1122,
        "meta_mean_anomaly": 174.9804,
        "meta_ephemeris_type": 0,
        "meta_classification_type": "U",
        "meta_norad_cat_id": 31495,
        "meta_element_set_no": 999,
        "meta_rev_at_epoch": 63357,
        "meta_bstar": 0.0018744955,
        "meta_mean_motion_dot": 4.73e-05,
        "meta_mean_motion_ddot": 0,
        "tle_line1": "1 31495U 99025BWJ 25344.38669889  .00004730  00000+0  18745-2 0  9992",
        "tle_line2": "2 31495  99.1197 217.4548 0025346 185.1122 174.9804 14.29184839633577"
      },
      "geometry": {
        "type": "Point",
        "coordinates": [
          -144.25652670605092,
          24.159823926498678
        ]
      }
    },
    {
      "type": "Feature",
      "properties": {
        "norad_id": 31497,
        "name": "FENGYUN 1C DEB",
        "group": "fengyun-1c-debris",
        "lat": 2.331414761143805,
        "lon": 150.60637191230842,
        "alt_km": 879.9463601735715,
        "timestamp": "2025-12-12T16:50:33.427538+00:00",
        "meta_object_name": "FENGYUN 1C DEB",
        "meta_object_id": "1999-025BWL",
        "meta_epoch": "2025-12-08T05:18:08.352864",
        "meta_mean_motion": 14.39210604,
        "meta_eccentricity": 0.01681658,
        "meta_inclination": 98.3696,
        "meta_ra_of_asc_node": 325.8872,
        "meta_arg_of_pericenter": 356.7424,
        "meta_mean_anomaly": 18.6105,
        "meta_ephemeris_type": 0,
        "meta_classification_type": "U",
        "meta_norad_cat_id": 31497,
        "meta_element_set_no": 999,
        "meta_rev_at_epoch": 97490,
        "meta_bstar": 0.00052392956,
        "meta_mean_motion_dot": 1.867e-05,
        "meta_mean_motion_ddot": 0,
        "tle_line1": "1 31497U 99025BWL 25342.22093001  .00001867  00000+0  52393-3 0  9998",
        "tle_line2": "2 31497  98.3696 325.8872 0168165 356.7424  18.6105 14.39210604974900"
      },
      "geometry": {
        "type": "Point",
        "coordinates": [
          150.60637191230842,
          2.331414761143805
        ]
      }
    },
    {
      "type": "Feature",
      "properties": {
        "norad_id": 31498,
        "name": "FENGYUN 1C DEB",
        "group": "fengyun-1c-debris",
        "lat": 72.63368745397258,
        "lon": 166.58525425609952,
        "alt_km": 842.7512593191532,
        "timestamp": "2025-12-12T16:50:33.427549+00:00",
        "meta_object_name": "FENGYUN 1C DEB",
        "meta_object_id": "1999-025BWM",
        "meta_epoch": "2025-12-11T21:09:00.050976",
        "meta_mean_motion": 13.76991774,
        "meta_eccentricity": 0.02187,
        "meta_inclination": 98.4867,
        "meta_ra_of_asc_node": 317.3353,
        "meta_arg_of_pericenter": 147.2908,
        "meta_mean_anomaly": 214.2008,
        "meta_ephemeris_type": 0,
        "meta_classification_type": "U",
        "meta_norad_cat_id": 31498,
        "meta_element_set_no": 999,
        "meta_rev_at_epoch": 92722,
        "meta_bstar": 0.0019996,
        "meta_mean_motion_dot": 2.318e-05,
        "meta_mean_motion_ddot": 0,
        "tle_line1": "1 31498U 99025BWM 25345.88125059  .00002318  00000+0  19996-2 0  9996",
        "tle_line2": "2 31498  98.4867 317.3353 0218700 147.2908 214.2008 13.76991774927226"
      },
      "geometry": {
        "type": "Point",
        "coordinates": [
          166.58525425609952,
          72.63368745397258
        ]
      }
    },
    {
      "type": "Feature",
      "properties": {
        "norad_id": 31503,
        "name": "FENGYUN 1C DEB",
        "group": "fengyun-1c-debris",
        "lat": 14.974699566024302,
        "lon": -149.9319645941555,
        "alt_km": 852.241360173256,
        "timestamp": "2025-12-12T16:50:33.427560+00:00",
        "meta_object_name": "FENGYUN 1C DEB",
        "meta_object_id": "1999-025BWS",
        "meta_epoch": "2025-12-07T08:28:57.805248",
        "meta_mean_motion": 14.22556904,
        "meta_eccentricity": 0.00490467,
        "meta_inclination": 100.0987,
        "meta_ra_of_asc_node": 206.6798,
        "meta_arg_of_pericenter": 202.0276,
        "meta_mean_anomaly": 157.879,
        "meta_ephemeris_type": 0,
        "meta_classification_type": "U",
        "meta_norad_cat_id": 31503,
        "meta_element_set_no": 999,
        "meta_rev_at_epoch": 64170,
        "meta_bstar": 0.0017221681,
        "meta_mean_motion_dot": 3.84e-05,
        "meta_mean_motion_ddot": 0,
        "tle_line1": "1 31503U 99025BWS 25341.35344682  .00003840  00000+0  17222-2 0  9997",
        "tle_line2": "2 31503 100.0987 206.6798 0049046 202.0276 157.8790 14.22556904641702"
      },
      "geometry": {
        "type": "Point",
        "coordinates": [
          -149.9319645941555,
          14.974699566024302
        ]
      }
    }
  ]
}